RADUGA 1 [-]            
1 08513U 75123A   22267.10057130  .00000002  00000+0  00000+0 0  9991
2 08513   6.3061 287.2130 0008258 218.6926 317.3985  1.00272275181153
RADUGA 2 [-]            
1 09416U 76092A   22267.10327450 -.00000133  00000+0  00000+0 0  9991
2 09416   6.9694 289.2012 0026137 357.7157 191.0237  1.00297975115688
RADUGA 3 [-]            
1 10159U 77071A   22267.03578146 -.00000299  00000+0  00000+0 0  9990
2 10159   7.5852 291.7993 0009892 236.2027 306.7861  1.00207513163386
RADUGA 4 [-]            
1 10987U 78073A   22267.16754115  .00000133  00000+0  00000+0 0  9994
2 10987   8.2104 295.3130 0007724 355.0969 172.9890  1.00297658105945
RADUGA 5 [-]            
1 11343U 79035A   22267.10466972 -.00000190  00000+0  00000+0 0  9999
2 11343   8.6698 298.0748 0007052 176.5573  10.4598  1.00260914115699
RADUGA 6 [-]            
1 11708U 80016A   22267.10126889 -.00000044  00000+0  00000+0 0  9993
2 11708   9.0304 301.1482 0003618 205.1556 320.2680  1.00342230108506
RADUGA 7 [-]            
1 12003U 80081A   22267.14326759 -.00000210  00000+0  00000+0 0  9991
2 12003   9.2146 303.0982 0010347 259.2115 185.5809  1.00285354109650
RADUGA 8 [-]            
1 12351U 81027A   22267.59238003 -.00000369  00000+0  00000+0 0  9996
2 12351   9.5449 303.6819 0083176 229.9195 152.8978  1.00397961108888
RADUGA 9 [-]            
1 12618U 81069A   22267.17146516  .00000020  00000+0  00000+0 0  9992
2 12618   9.7662 306.6492 0004665 163.3641  14.2828  1.00348979 33681
RADUGA 10 [-]           
1 12897U 81102A   22267.10466972 -.00000195  00000+0  00000+0 0  9997
2 12897   9.8519 307.6285 0006571 182.8708 354.4101  1.00283235103685
RADUGA 11 [-]           
1 13669U 82113A   22267.38901928 -.00000118  00000+0  00000+0 0  9998
2 13669  11.9008 321.3534 0038418 254.3324 128.2500  0.97709339108233
RADUGA 12 [-]           
1 13974U 83028A   22266.67081816 -.00000035  00000+0  00000+0 0  9997
2 13974  10.9997 317.4022 0002846 133.7338 220.1399  1.00286909155718
RADUGA 13 [-]           
1 14307U 83088A   22266.32410483 -.00000186  00000+0  00000+0 0  9999
2 14307  12.1524 322.9069 0014389  46.7778 103.3300  0.98175663105569
RADUGA 14 [-]           
1 14725U 84016A   22267.10493131 -.00000212  00000+0  00000+0 0  9993
2 14725  11.2076 321.1642 0005869 148.2949  17.7619  1.00267929104442
RADUGA 15 [-]           
1 15057U 84063A   22267.53206694 -.00000359  00000+0  00000+0 0  9999
2 15057  11.3295 322.1492 0006606 162.4489 197.4456  1.00297691127445
RADUGA 16 [-]           
1 15946U 85070A   22267.37608066  .00000093  00000+0  00000+0 0  9990
2 15946  11.7950 326.8187 0003071 167.1761 194.8124  1.00295987108576
RADUGA 17 [-]           
1 16250U 85107A   22267.15466226 -.00000205  00000+0  00000+0 0  9992
2 16250  11.9194 328.2095 0015603 182.4332 183.9091  1.00132635138035
RADUGA 18 [-]           
1 16497U 86007A   22266.73208413  .00000047  00000+0  00000+0 0  9993
2 16497  12.7295 330.9258 0076484 166.6868 194.6523  0.98810453132403
RADUGA 19 [-]           
1 17046U 86082A   22265.93807365 -.00000207  00000+0  00000+0 0  9998
2 17046  13.1620 334.8659 0014556 151.6269 203.7483  0.98462187129488
RADUGA 20 [-]           
1 17611U 87028A   22266.67761979 -.00000090  00000+0  00000+0 0  9999
2 17611  15.1775 338.3784 0031462 139.6996 230.8501  0.95961145125242
RADUGA 21 [-]           
1 18631U 87100A   22267.39821322  .00000115  00000+0  00000+0 0  9999
2 18631  13.2490 335.6970 0004278 136.6696 240.6962  1.00300126127430
RADUGA 22 [-]           
1 19596U 88095A   22267.53237431 -.00000367  00000+0  00000+0 0  9992
2 19596  13.2357 339.9935 0008364 143.0544 195.0127  1.00214225107994
RADUGA 23 [-]           
1 19928U 89030A   22266.83313454  .00000106  00000+0  00000+0 0  9993
2 19928  13.3858 341.8190 0023052 164.1340 202.4326  1.00340258121192
RADUGA-1 1 [-]          
1 20083U 89048A   22267.24493771  .00000001  00000+0  00000+0 0  9997
2 20083  14.1413 344.8807 0023260 117.5411 248.8374  0.98707047117834
RADUGA 24 [-]           
1 20367U 89098A   22266.86820972  .00000049  00000+0  00000+0 0  9993
2 20367  13.9624 344.0770 0002857 142.9224 246.7081  1.00217349119316
RADUGA 25 [-]           
1 20499U 90016A   22267.26338913 -.00000262  00000+0  00000+0 0  9993
2 20499  13.7321 344.7294 0006544 146.6030 253.6089  1.00181465119252
RADUGA 26 [-]           
1 21016U 90112A   22266.75761014 -.00000057  00000+0  00000+0 0  9993
2 21016  14.0496 347.9887 0007915  99.6433 256.5413  1.00320226116592
RADUGA-1 2 [-]          
1 21038U 90116A   22266.83313454  .00000096  00000+0  00000+0 0  9993
2 21038  14.0875 348.0605 0009362 106.5571 256.9146  1.00278755 33680
RADUGA 27 [-]           
1 21132U 91014A   22266.91021726  .00000097  00000+0  00000+0 0  9994
2 21132  14.5970 347.5988 0004545 112.8330 248.9487  1.00290759115650
RADUGA 28 [-]           
1 21821U 91087A   22266.67596299 -.00000251  00000+0  00000+0 0  9997
2 21821  14.3670 351.3302 0008842 129.6604 217.8987  1.00191926112650
RADUGA 29 [-]           
1 22557U 93013A   22266.95736361  .00000120  00000+0  00000+0 0  9996
2 22557  14.5767 355.5037 0007783 117.5365 274.5466  1.00358405108025
RADUGA 30 [-]           
1 22836U 93062A   22266.81559324 -.00000094  00000+0  00000+0 0  9998
2 22836  14.6193 357.4791 0000995  60.3268 312.6564  1.00258873 32344
RADUGA-1 3 [-]          
1 22981U 94008A   22266.69397119 -.00000277  00000+0  00000+0 0  9991
2 22981  14.6984 358.6295 0005045 116.3942 232.6256  1.00237085104810
RADUGA 31 [-]           
1 23010U 94012A   22266.79503028 -.00000011  00000+0  00000+0 0  9995
2 23010  14.6680 358.6266 0006492 102.2787 251.1298  1.00334475104681
RADUGA 32 [-]           
1 23448U 94087A   22266.81568045 -.00000102  00000+0  00000+0 0  9996
2 23448  14.6529   1.3398 0005474 189.9661 179.9390  1.00260905119220
RADUGA-1 4 [-]          
1 25642U 99010A   22266.95010694  .00000121  00000+0  00000+0 0  9992
2 25642  15.2311  12.9117 0001909 208.8350 163.7850  1.00312492 86297
RADUGA-1 5 [-]          
1 26477U 00049A   22266.95558774  .00000115  00000+0  00000+0 0  9992
2 26477  13.1840  17.7938 0005871  74.8453 298.8205  1.00289662 80761
RADUGA-1 6 [-]          
1 26936U 01045A   22267.26229917 -.00000082  00000+0  00000+0 0  9992
2 26936  13.3564  24.1153 0016965 162.2838 200.1927  0.97744256 75291
RADUGA-1 7 [-]          
1 28194U 04010A   22267.53861808 -.00000364  00000+0  00000+0 0  9999
2 28194  12.0824  30.9405 0002517 150.0251 139.3026  1.00228547 67762
RADUGA-1M 1 [-]         
1 32373U 07058A   22267.51623889  .00000079  00000+0  00000+0 0  9993
2 32373   7.1112  63.3524 0003226  45.9750 319.1840  0.99393888 38866
RADUGA-1 8 [-]          
1 34264U 09010A   22267.25674458 -.00000273  00000+0  00000+0 0  9990
2 34264   9.4178  53.3363 0014028   7.2808 340.4017  0.99824548 49576
RADUGA-1M 2 [+]         
1 36358U 10002A   22267.17688340 -.00000186  00000+0  00000+0 0  9998
2 36358   0.0944 113.0843 0000956 194.5331 204.1047  1.00271338 36439
RADUGA-1M 3 [+]         
1 39375U 13062A   22267.62406098  .00000156  00000+0  00000+0 0  9993
2 39375   2.4777  88.5828 0002045 152.3482  22.1966  1.00273183 32478
